start=new Date('2022-02-06T00:00:00.000Z').valueOf();
sats=[{"OBJECT_NAME":"STARLINK-1609","ARG_OF_PERICENTER":"67.6889","SEMIMAJOR_AXIS":"6925.327","APOAPSIS":"548.367","SITE":"AFETR","CENTER_NAME":"EARTH","PERIOD":"95.592","EPHEMERIS_TYPE":"0","ECCENTRICITY":"0.00016960","TLE_LINE2":"2 47621  53.0540 295.0486 0001696  67.6889 292.4280 15.06406934 54924","REF_FRAME":"TEME","MEAN_MOTION_DDOT":"0.0000000000000","MEAN_ANOMALY":"292.4280","RA_OF_ASC_NODE":"295.0486","TIME_SYSTEM":"UTC","TLE_LINE1":"1 47621U 21012B   22036.44752390  .00001022  00000-0  87512-4 0  9995","RCS_SIZE":"LARGE","REV_AT_EPOCH":"5492","COUNTRY_CODE":"US","CLASSIFICATION_TYPE":"U","BSTAR":"0.00008751200000","MEAN_ELEMENT_THEORY":"SGP4","EPOCH":"2022-02-05T10:44:26.064960","GP_ID":"195369090","LAUNCH_DATE":"2021-02-16","MEAN_MOTION_DOT":"0.00001022","NORAD_CAT_ID":"47621","FILE":"3292709","INCLINATION":"53.0540","DECAY_DATE":null,"OBJECT_ID":"2021-012B","OBJECT_TYPE":"PAYLOAD","ELEMENT_SET_NO":"999","PERIAPSIS":"546.018","MEAN_MOTION":"15.06406934"},{"OBJECT_NAME":"STARLINK-1645","APOAPSIS":"548.408","SEMIMAJOR_AXIS":"6925.374","ARG_OF_PERICENTER":"55.3329","SITE":"AFETR","CENTER_NAME":"EARTH","EPHEMERIS_TYPE":"0","PERIOD":"95.593","TLE_LINE2":"2 47622  53.0534 293.8636 0001687  55.3329 304.7818 15.06391552 54444","ECCENTRICITY":"0.00016870","MEAN_MOTION_DDOT":"0.0000000000000","REF_FRAME":"TEME","RA_OF_ASC_NODE":"293.8636","MEAN_ANOMALY":"304.7818","TIME_SYSTEM":"UTC","TLE_LINE1":"1 47622U 21012C   22036.70923464  .00002558  00000-0  19059-3 0  9992","RCS_SIZE":"LARGE","REV_AT_EPOCH":"5444","COUNTRY_CODE":"US","CLASSIFICATION_TYPE":"U","MEAN_ELEMENT_THEORY":"SGP4","BSTAR":"0.00019059000000","GP_ID":"195373503","EPOCH":"2022-02-05T17:01:17.872896","LAUNCH_DATE":"2021-02-16","MEAN_MOTION_DOT":"0.00002558","NORAD_CAT_ID":"47622","FILE":"3292753","INCLINATION":"53.0534","OBJECT_ID":"2021-012C","OBJECT_TYPE":"PAYLOAD","DECAY_DATE":null,"ELEMENT_SET_NO":"999","PERIAPSIS":"546.071","MEAN_MOTION":"15.06391552"},{"ELEMENT_SET_NO":"999","PERIAPSIS":"545.932","MEAN_MOTION":"15.06401328","DECAY_DATE":null,"OBJECT_TYPE":"PAYLOAD","OBJECT_ID":"2021-012D","LAUNCH_DATE":"2021-02-16","MEAN_MOTION_DOT":"0.00000496","NORAD_CAT_ID":"47623","INCLINATION":"53.0548","FILE":"3292709","CLASSIFICATION_TYPE":"U","BSTAR":"0.00005220000000","MEAN_ELEMENT_THEORY":"SGP4","EPOCH":"2022-02-05T12:31:16.616640","GP_ID":"195367594","TLE_LINE1":"1 47623U 21012D   22036.52172010  .00000496  00000-0  52200-4 0  9991","RCS_SIZE":"LARGE","REV_AT_EPOCH":"5584","COUNTRY_CODE":"US","MEAN_MOTION_DDOT":"0.0000000000000","REF_FRAME":"TEME","MEAN_ANOMALY":"293.1675","RA_OF_ASC_NODE":"229.7077","TIME_SYSTEM":"UTC","SITE":"AFETR","CENTER_NAME":"EARTH","EPHEMERIS_TYPE":"0","PERIOD":"95.592","ECCENTRICITY":"0.00018440","TLE_LINE2":"2 47623  53.0548 229.7077 0001844  66.9508 293.1675 15.06401328 55849","OBJECT_NAME":"STARLINK-1655","SEMIMAJOR_AXIS":"6925.344","ARG_OF_PERICENTER":"66.9508","APOAPSIS":"548.487"},{"DECAY_DATE":null,"OBJECT_ID":"2021-012E","OBJECT_TYPE":"PAYLOAD","PERIAPSIS":"546.012","MEAN_MOTION":"15.06402606","ELEMENT_SET_NO":"999","EPOCH":"2022-02-05T09:11:33.664992","GP_ID":"195368346","CLASSIFICATION_TYPE":"U","BSTAR":"0.00004265400000","MEAN_ELEMENT_THEORY":"SGP4","NORAD_CAT_ID":"47624","FILE":"3292709","INCLINATION":"53.0550","LAUNCH_DATE":"2021-02-16","MEAN_MOTION_DOT":"0.00000354","TIME_SYSTEM":"UTC","MEAN_MOTION_DDOT":"0.0000000000000","REF_FRAME":"TEME","MEAN_ANOMALY":"295.8397","RA_OF_ASC_NODE":"275.3345","REV_AT_EPOCH":"5520","COUNTRY_CODE":"US","TLE_LINE1":"1 47624U 21012E   22036.38302853  .00000354  00000-0  42654-4 0  9991","RCS_SIZE":"LARGE","SEMIMAJOR_AXIS":"6925.341","ARG_OF_PERICENTER":"64.2770","APOAPSIS":"548.399","OBJECT_NAME":"STARLINK-1669","ECCENTRICITY":"0.00017230","TLE_LINE2":"2 47624  53.0550 275.3345 0001723  64.2770 295.8397 15.06402606 55206","SITE":"AFETR","CENTER_NAME":"EARTH","PERIOD":"95.592","EPHEMERIS_TYPE":"0"},{"EPOCH":"2022-02-05T10:49:44.680512","GP_ID":"195368591","CLASSIFICATION_TYPE":"U","BSTAR":"-0.00010354000000","MEAN_ELEMENT_THEORY":"SGP4","NORAD_CAT_ID":"47625","INCLINATION":"53.0541","FILE":"3292709","LAUNCH_DATE":"2021-02-16","MEAN_MOTION_DOT":"-0.00001823","DECAY_DATE":null,"OBJECT_TYPE":"PAYLOAD","OBJECT_ID":"2021-012F","PERIAPSIS":"546.039","MEAN_MOTION":"15.06398111","ELEMENT_SET_NO":"999","SEMIMAJOR_AXIS":"6925.354","ARG_OF_PERICENTER":"67.5066","APOAPSIS":"548.399","OBJECT_NAME":"STARLINK-1704","ECCENTRICITY":"0.00017040","TLE_LINE2":"2 47625  53.0541 295.0292 0001704  67.5066 292.6103 15.06398111 54912","SITE":"AFETR","CENTER_NAME":"EARTH","PERIOD":"95.592","EPHEMERIS_TYPE":"0","TIME_SYSTEM":"UTC","MEAN_MOTION_DDOT":"0.0000000000000","REF_FRAME":"TEME","MEAN_ANOMALY":"292.6103","RA_OF_ASC_NODE":"295.0292","REV_AT_EPOCH":"5491","COUNTRY_CODE":"US","TLE_LINE1":"1 47625U 21012F   22036.45121158 -.00001823  00000-0 -10354-3 0  9992","RCS_SIZE":"LARGE"},{"MEAN_MOTION_DOT":"0.00011378","LAUNCH_DATE":"2021-02-16","FILE":"3292709","INCLINATION":"53.0555","NORAD_CAT_ID":"47626","MEAN_ELEMENT_THEORY":"SGP4","BSTAR":"0.00078087000000","CLASSIFICATION_TYPE":"U","GP_ID":"195367844","EPOCH":"2022-02-05T10:28:31.246464","ELEMENT_SET_NO":"999","MEAN_MOTION":"15.06430555","PERIAPSIS":"545.845","OBJECT_ID":"2021-012G","OBJECT_TYPE":"PAYLOAD","DECAY_DATE":null,"EPHEMERIS_TYPE":"0","PERIOD":"95.590","SITE":"AFETR","CENTER_NAME":"EARTH","TLE_LINE2":"2 47626  53.0555 295.0905 0001841  64.4246 295.6933 15.06430555 54910","ECCENTRICITY":"0.00018410","OBJECT_NAME":"STARLINK-1761","APOAPSIS":"548.395","SEMIMAJOR_AXIS":"6925.255","ARG_OF_PERICENTER":"64.4246","RCS_SIZE":"LARGE","TLE_LINE1":"1 47626U 21012G   22036.43647276  .00011378  00000-0  78087-3 0  9996","COUNTRY_CODE":"US","REV_AT_EPOCH":"5491","RA_OF_ASC_NODE":"295.0905","MEAN_ANOMALY":"295.6933","REF_FRAME":"TEME","MEAN_MOTION_DDOT":"0.0000000000000","TIME_SYSTEM":"UTC"},{"OBJECT_NAME":"STARLINK-1972","SEMIMAJOR_AXIS":"6925.366","ARG_OF_PERICENTER":"68.1319","APOAPSIS":"548.185","CENTER_NAME":"EARTH","SITE":"AFETR","PERIOD":"95.593","EPHEMERIS_TYPE":"0","ECCENTRICITY":"0.00013780","TLE_LINE2":"2 47627  53.0527 199.4256 0001378  68.1319 311.3419 15.06394307 55744","REF_FRAME":"TEME","MEAN_MOTION_DDOT":"0.0000000000000","MEAN_ANOMALY":"311.3419","RA_OF_ASC_NODE":"199.4256","TIME_SYSTEM":"UTC","TLE_LINE1":"1 47627U 21012H   22036.58334491 -.00028882  00000-0 -19282-2 0  9996","RCS_SIZE":"LARGE","REV_AT_EPOCH":"5574","COUNTRY_CODE":"US","CLASSIFICATION_TYPE":"U","BSTAR":"-0.00192820000000","MEAN_ELEMENT_THEORY":"SGP4","EPOCH":"2022-02-05T14:00:01.000224","GP_ID":"195340749","LAUNCH_DATE":"2021-02-16","MEAN_MOTION_DOT":"-0.00028882","NORAD_CAT_ID":"47627","FILE":"3292460","INCLINATION":"53.0527","DECAY_DATE":null,"OBJECT_ID":"2021-012H","OBJECT_TYPE":"PAYLOAD","ELEMENT_SET_NO":"999","PERIAPSIS":"546.277","MEAN_MOTION":"15.06394307"},{"COUNTRY_CODE":"US","REV_AT_EPOCH":"5444","RCS_SIZE":"LARGE","TLE_LINE1":"1 47628U 21012J   22036.73871742 -.00005809  00000-0 -37150-3 0  9998","TIME_SYSTEM":"UTC","RA_OF_ASC_NODE":"293.7471","MEAN_ANOMALY":"292.9062","REF_FRAME":"TEME","MEAN_MOTION_DDOT":"0.0000000000000","TLE_LINE2":"2 47628  53.0527 293.7471 0001764  67.2113 292.9062 15.06388259 54446","ECCENTRICITY":"0.00017640","EPHEMERIS_TYPE":"0","PERIOD":"95.593","SITE":"AFETR","CENTER_NAME":"EARTH","APOAPSIS":"548.471","ARG_OF_PERICENTER":"67.2113","SEMIMAJOR_AXIS":"6925.385","OBJECT_NAME":"STARLINK-1973","MEAN_MOTION":"15.06388259","PERIAPSIS":"546.028","ELEMENT_SET_NO":"999","OBJECT_TYPE":"PAYLOAD","OBJECT_ID":"2021-012J","DECAY_DATE":null,"FILE":"3292772","INCLINATION":"53.0527","NORAD_CAT_ID":"47628","MEAN_MOTION_DOT":"-0.00005809","LAUNCH_DATE":"2021-02-16","GP_ID":"195373529","EPOCH":"2022-02-05T17:43:45.185088","MEAN_ELEMENT_THEORY":"SGP4","BSTAR":"-0.00037150000000","CLASSIFICATION_TYPE":"U"},{"MEAN_ELEMENT_THEORY":"SGP4","BSTAR":"0.00009404600000","CLASSIFICATION_TYPE":"U","GP_ID":"195373535","EPOCH":"2022-02-05T22:00:01.999584","MEAN_MOTION_DOT":"0.00001119","LAUNCH_DATE":"2021-02-16","FILE":"3292772","INCLINATION":"53.0540","NORAD_CAT_ID":"47629","OBJECT_ID":"2021-012K","OBJECT_TYPE":"PAYLOAD","DECAY_DATE":null,"ELEMENT_SET_NO":"999","MEAN_MOTION":"15.06399416","PERIAPSIS":"545.884","OBJECT_NAME":"STARLINK-1974","APOAPSIS":"548.546","SEMIMAJOR_AXIS":"6925.350","ARG_OF_PERICENTER":"79.6132","EPHEMERIS_TYPE":"0","PERIOD":"95.592","SITE":"AFETR","CENTER_NAME":"EARTH","TLE_LINE2":"2 47629  53.0540 172.9273 0001922  79.6132 266.1781 15.06399416 56152","ECCENTRICITY":"0.00019220","RA_OF_ASC_NODE":"172.9273","MEAN_ANOMALY":"266.1781","REF_FRAME":"TEME","MEAN_MOTION_DDOT":"0.0000000000000","TIME_SYSTEM":"UTC","RCS_SIZE":"LARGE","TLE_LINE1":"1 47629U 21012K   22036.91668981  .00001119  00000-0  94046-4 0  9994","COUNTRY_CODE":"US","REV_AT_EPOCH":"5615"},{"PERIAPSIS":"546.114","MEAN_MOTION":"15.06397697","ELEMENT_SET_NO":"999","DECAY_DATE":null,"OBJECT_ID":"2021-012L","OBJECT_TYPE":"PAYLOAD","NORAD_CAT_ID":"47630","FILE":"3292772","INCLINATION":"53.0552","LAUNCH_DATE":"2021-02-16","MEAN_MOTION_DOT":"-0.00002263","EPOCH":"2022-02-05T19:15:17.381664","GP_ID":"195373030","CLASSIFICATION_TYPE":"U","BSTAR":"-0.00013309000000","MEAN_ELEMENT_THEORY":"SGP4","REV_AT_EPOCH":"5473","COUNTRY_CODE":"US","TLE_LINE1":"1 47630U 21012L   22036.80228451 -.00002263  00000-0 -13309-3 0  9993","RCS_SIZE":"LARGE","TIME_SYSTEM":"UTC","REF_FRAME":"TEME","MEAN_MOTION_DDOT":"0.0000000000000","MEAN_ANOMALY":"315.6623","RA_OF_ASC_NODE":"273.4491","ECCENTRICITY":"0.00015980","TLE_LINE2":"2 47630  53.0552 273.4491 0001598  44.4494 315.6623 15.06397697 54732","SITE":"AFETR","CENTER_NAME":"EARTH","PERIOD":"95.592","EPHEMERIS_TYPE":"0","SEMIMAJOR_AXIS":"6925.356","ARG_OF_PERICENTER":"44.4494","APOAPSIS":"548.327","OBJECT_NAME":"STARLINK-1983"}];
